41180,ORBCOMM FM119,2015,98.85,-1.0,-,47.0,Inactive,0,LEO,USA,ORBCOMM,Unknown,Unknown,Unknown,1 41180U 15081B   24222.51778199  .00001789  00000+0  43259-3 0  9998,2 41180  46.9992 226.8631 0001053  11.7582 348.3327 14.56823941460256,14.56823941,0.0001053,LEO
41181,ORBCOMM FM105,2015,99.69,-1.0,-,47.0,Inactive,0,LEO,USA,ORBCOMM,Unknown,Unknown,Unknown,1 41181U 15081C   24222.29723814  .00001018  00000+0  33716-3 0  9990,2 41181  47.0000 203.1637 0002194 339.4260  20.6531 14.44519172455642,14.44519172,0.0002194,LEO
40091,ORBCOMM FM103,2014,98.84,172.0,+,47.01,Active,1,LEO,USA,ORBCOMM,Commercial,Communications,Falcon,1 40091U 14040F   24222.51305997  .00002071  00000+0  49474-3 0  9994,2 40091  47.0065  48.4420 0002391 277.9071  82.1543 14.56846506518639,14.56846506,0.0002391,LEO
41179,ORBCOMM FM114,2015,98.84,172.0,+,47.0,Active,1,LEO,USA,ORBCOMM,Commercial,Communications,Falcon,1 41179U 15081A   24222.54292349  .00003109  00000+0  72359-3 0  9998,2 41179  47.0032 317.5205 0002196 319.9146  40.1577 14.56873328459003,14.56873328,0.0002196,LEO
41182,ORBCOMM FM110,2015,98.84,172.0,+,47.0,Active,1,LEO,USA,ORBCOMM,Commercial,Communications,Falcon,1 41182U 15081D   24222.52032900  .00003191  00000+0  74073-3 0  9991,2 41182  47.0021 317.0293 0002180 207.9378 152.1390 14.56933614458879,14.56933614,0.000218,LEO
41183,ORBCOMM FM118,2015,98.84,172.0,+,47.0,Active,1,LEO,USA,ORBCOMM,Commercial,Communications,Falcon,1 41183U 15081E   24222.56662499  .00002675  00000+0  62709-3 0  9997,2 41183  47.0044 317.1397 0002310 202.2435 157.8350 14.56926616458982,14.56926616,0.000231,LEO
41184,ORBCOMM FM112,2015,98.85,172.0,+,47.0,Active,1,LEO,USA,ORBCOMM,Commercial,Communications,Falcon,1 41184U 15081F   24222.42611220  .00002177  00000+0  51867-3 0  9999,2 41184  46.9976 226.4948 0001800 357.2233   2.8641 14.56802301460180,14.56802301,0.00018,LEO
41185,ORBCOMM FM113,2015,98.85,172.0,+,47.0,Active,1,LEO,USA,ORBCOMM,Commercial,Communications,Falcon,1 41185U 15081G   24222.33473739  .00002563  00000+0  60382-3 0  9992,2 41185  46.9985 227.2064 0001287 359.4358   0.6525 14.56808946460155,14.56808946,0.0001287,LEO
